[
  {
    "COMMENT": "GENERATED VIA SPACETRACK.ORG API",
    "ORIGINATOR": "18 SPCS",
    "NORAD_CAT_ID": "27386",
    "OBJECT_NAME": "ENVISAT",
    "OBJECT_TYPE": "PAYLOAD",
    "CLASSIFICATION_TYPE": "U",
    "INTLDES": "02009A",
    "EPOCH": "2023-08-02 10:13:00",
    "EPOCH_MICROSECONDS": "909408",
    "MEAN_MOTION": "14.38386406",
    "ECCENTRICITY": "0.0001389",
    "INCLINATION": "98.234",
    "RA_OF_ASC_NODE": "182.5372",
    "ARG_OF_PERICENTER": "85.1539",
    "MEAN_ANOMALY": "85.7477",
    "EPHEMERIS_TYPE": "0",
    "ELEMENT_SET_NO": "999",
    "REV_AT_EPOCH": "12260",
    "BSTAR": "0.000069595",
    "MEAN_MOTION_DOT": "0.00000171",
    "MEAN_MOTION_DDOT": "0",
    "FILE": "3969591",
    "TLE_LINE0": "0 ENVISAT",
    "TLE_LINE1": "1 27386U 02009A   23214.42570497  .00000171  00000-0  69595-4 0  9994",
    "TLE_LINE2": "2 27386  98.2340 182.5372 0001389  85.1539  85.7477 14.38386406122606",
    "OBJECT_ID": "2002-009A",
    "OBJECT_NUMBER": "27386",
    "SEMIMAJOR_AXIS": "7141.972",
    "PERIOD": "100.112",
    "APOGEE": "764.829",
    "PERIGEE": "762.845",
    "DECAYED": "0"
  },
  {
    "COMMENT": "GENERATED VIA SPACETRACK.ORG API",
    "ORIGINATOR": "18 SPCS",
    "NORAD_CAT_ID": "27386",
    "OBJECT_NAME": "ENVISAT",
    "OBJECT_TYPE": "PAYLOAD",
    "CLASSIFICATION_TYPE": "U",
    "INTLDES": "02009A",
    "EPOCH": "2023-08-02 16:54:19",
    "EPOCH_MICROSECONDS": "9152",
    "MEAN_MOTION": "14.38386544",
    "ECCENTRICITY": "0.0001392",
    "INCLINATION": "98.234",
    "RA_OF_ASC_NODE": "182.8045",
    "ARG_OF_PERICENTER": "85.3873",
    "MEAN_ANOMALY": "87.7433",
    "EPHEMERIS_TYPE": "0",
    "ELEMENT_SET_NO": "999",
    "REV_AT_EPOCH": "12264",
    "BSTAR": "0.000071116",
    "MEAN_MOTION_DOT": "0.00000175",
    "MEAN_MOTION_DDOT": "0",
    "FILE": "3969864",
    "TLE_LINE0": "0 ENVISAT",
    "TLE_LINE1": "1 27386U 02009A   23214.70438668  .00000175  00000-0  71116-4 0  9994",
    "TLE_LINE2": "2 27386  98.2340 182.8045 0001392  85.3873  87.7433 14.38386544122644",
    "OBJECT_ID": "2002-009A",
    "OBJECT_NUMBER": "27386",
    "SEMIMAJOR_AXIS": "7141.971",
    "PERIOD": "100.112",
    "APOGEE": "764.830",
    "PERIGEE": "762.842",
    "DECAYED": "0"
  },
  {
    "COMMENT": "GENERATED VIA SPACETRACK.ORG API",
    "ORIGINATOR": "18 SPCS",
    "NORAD_CAT_ID": "27386",
    "OBJECT_NAME": "ENVISAT",
    "OBJECT_TYPE": "PAYLOAD",
    "CLASSIFICATION_TYPE": "U",
    "INTLDES": "02009A",
    "EPOCH": "2023-08-02 21:23:22",
    "EPOCH_MICROSECONDS": "217568",
    "MEAN_MOTION": "14.38386755",
    "ECCENTRICITY": "0.0001392",
    "INCLINATION": "98.234",
    "RA_OF_ASC_NODE": "182.9838",
    "ARG_OF_PERICENTER": "85.3916",
    "MEAN_ANOMALY": "334.6846",
    "EPHEMERIS_TYPE": "0",
    "ELEMENT_SET_NO": "999",
    "REV_AT_EPOCH": "12267",
    "BSTAR": "0.000076525",
    "MEAN_MOTION_DOT": "0.00000192",
    "MEAN_MOTION_DDOT": "0",
    "FILE": "3970162",
    "TLE_LINE0": "0 ENVISAT",
    "TLE_LINE1": "1 27386U 02009A   23214.89122937  .00000192  00000-0  76525-4 0  9991",
    "TLE_LINE2": "2 27386  98.2340 182.9838 0001392  85.3916 334.6846 14.38386755122672",
    "OBJECT_ID": "2002-009A",
    "OBJECT_NUMBER": "27386",
    "SEMIMAJOR_AXIS": "7141.971",
    "PERIOD": "100.112",
    "APOGEE": "764.830",
    "PERIGEE": "762.841",
    "DECAYED": "0"
  },
  {
    "COMMENT": "GENERATED VIA SPACETRACK.ORG API",
    "ORIGINATOR": "18 SPCS",
    "NORAD_CAT_ID": "27386",
    "OBJECT_NAME": "ENVISAT",
    "OBJECT_TYPE": "PAYLOAD",
    "CLASSIFICATION_TYPE": "U",
    "INTLDES": "02009A",
    "EPOCH": "2023-08-03 10:58:36",
    "EPOCH_MICROSECONDS": "641856",
    "MEAN_MOTION": "14.38387018",
    "ECCENTRICITY": "0.0001394",
    "INCLINATION": "98.234",
    "RA_OF_ASC_NODE": "183.5269",
    "ARG_OF_PERICENTER": "85.219",
    "MEAN_ANOMALY": "24.731",
    "EPHEMERIS_TYPE": "0",
    "ELEMENT_SET_NO": "999",
    "REV_AT_EPOCH": "12275",
    "BSTAR": "0.000079058",
    "MEAN_MOTION_DOT": "0.00000199",
    "MEAN_MOTION_DDOT": "0",
    "FILE": "3970483",
    "TLE_LINE0": "0 ENVISAT",
    "TLE_LINE1": "1 27386U 02009A   23215.45736854  .00000199  00000-0  79058-4 0  9994",
    "TLE_LINE2": "2 27386  98.2340 183.5269 0001394  85.2190  24.7310 14.38387018122757",
    "OBJECT_ID": "2002-009A",
    "OBJECT_NUMBER": "27386",
    "SEMIMAJOR_AXIS": "7141.970",
    "PERIOD": "100.112",
    "APOGEE": "764.830",
    "PERIGEE": "762.839",
    "DECAYED": "0"
  },
  {
    "COMMENT": "GENERATED VIA SPACETRACK.ORG API",
    "ORIGINATOR": "18 SPCS",
    "NORAD_CAT_ID": "27386",
    "OBJECT_NAME": "ENVISAT",
    "OBJECT_TYPE": "PAYLOAD",
    "CLASSIFICATION_TYPE": "U",
    "INTLDES": "02009A",
    "EPOCH": "2023-08-03 19:06:22",
    "EPOCH_MICROSECONDS": "27392",
    "MEAN_MOTION": "14.3838718",
    "ECCENTRICITY": "0.0001394",
    "INCLINATION": "98.234",
    "RA_OF_ASC_NODE": "183.8519",
    "ARG_OF_PERICENTER": "85.2976",
    "MEAN_ANOMALY": "337.5897",
    "EPHEMERIS_TYPE": "0",
    "ELEMENT_SET_NO": "999",
    "REV_AT_EPOCH": "12280",
    "BSTAR": "0.000080302",
    "MEAN_MOTION_DOT": "0.00000203",
    "MEAN_MOTION_DDOT": "0",
    "FILE": "3970795",
    "TLE_LINE0": "0 ENVISAT",
    "TLE_LINE1": "1 27386U 02009A   23215.79608828  .00000203  00000-0  80302-4 0  9990",
    "TLE_LINE2": "2 27386  98.2340 183.8519 0001394  85.2976 337.5897 14.38387180122801",
    "OBJECT_ID": "2002-009A",
    "OBJECT_NUMBER": "27386",
    "SEMIMAJOR_AXIS": "7141.969",
    "PERIOD": "100.112",
    "APOGEE": "764.830",
    "PERIGEE": "762.839",
    "DECAYED": "0"
  },
  {
    "COMMENT": "GENERATED VIA SPACETRACK.ORG API",
    "ORIGINATOR": "18 SPCS",
    "NORAD_CAT_ID": "27386",
    "OBJECT_NAME": "ENVISAT",
    "OBJECT_TYPE": "PAYLOAD",
    "CLASSIFICATION_TYPE": "U",
    "INTLDES": "02009A",
    "EPOCH": "2023-08-03 22:27:29",
    "EPOCH_MICROSECONDS": "287296",
    "MEAN_MOTION": "14.3838729",
    "ECCENTRICITY": "0.0001389",
    "INCLINATION": "98.234",
    "RA_OF_ASC_NODE": "183.9859",
    "ARG_OF_PERICENTER": "85.1172",
    "MEAN_ANOMALY": "340.5747",
    "EPHEMERIS_TYPE": "0",
    "ELEMENT_SET_NO": "999",
    "REV_AT_EPOCH": "12282",
    "BSTAR": "0.000082061",
    "MEAN_MOTION_DOT": "0.00000209",
    "MEAN_MOTION_DDOT": "0",
    "FILE": "3970961",
    "TLE_LINE0": "0 ENVISAT",
    "TLE_LINE1": "1 27386U 02009A   23215.93575564  .00000209  00000-0  82061-4 0  9996",
    "TLE_LINE2": "2 27386  98.2340 183.9859 0001389  85.1172 340.5747 14.38387290122822",
    "OBJECT_ID": "2002-009A",
    "OBJECT_NUMBER": "27386",
    "SEMIMAJOR_AXIS": "7141.969",
    "PERIOD": "100.112",
    "APOGEE": "764.826",
    "PERIGEE": "762.842",
    "DECAYED": "0"
  },
  {
    "COMMENT": "GENERATED VIA SPACETRACK.ORG API",
    "ORIGINATOR": "18 SPCS",
    "NORAD_CAT_ID": "27386",
    "OBJECT_NAME": "ENVISAT",
    "OBJECT_TYPE": "PAYLOAD",
    "CLASSIFICATION_TYPE": "U",
    "INTLDES": "02009A",
    "EPOCH": "2023-08-04 10:36:40",
    "EPOCH_MICROSECONDS": "164192",
    "MEAN_MOTION": "14.38387405",
    "ECCENTRICITY": "0.000139",
    "INCLINATION": "98.2341",
    "RA_OF_ASC_NODE": "184.4717",
    "ARG_OF_PERICENTER": "85.0194",
    "MEAN_ANOMALY": "81.2616",
    "EPHEMERIS_TYPE": "0",
    "ELEMENT_SET_NO": "999",
    "REV_AT_EPOCH": "12289",
    "BSTAR": "0.000075333",
    "MEAN_MOTION_DOT": "0.00000188",
    "MEAN_MOTION_DDOT": "0",
    "FILE": "3971359",
    "TLE_LINE0": "0 ENVISAT",
    "TLE_LINE1": "1 27386U 02009A   23216.44213153  .00000188  00000-0  75333-4 0  9996",
    "TLE_LINE2": "2 27386  98.2341 184.4717 0001390  85.0194  81.2616 14.38387405122896",
    "OBJECT_ID": "2002-009A",
    "OBJECT_NUMBER": "27386",
    "SEMIMAJOR_AXIS": "7141.968",
    "PERIOD": "100.112",
    "APOGEE": "764.826",
    "PERIGEE": "762.841",
    "DECAYED": "0"
  },
  {
    "COMMENT": "GENERATED VIA SPACETRACK.ORG API",
    "ORIGINATOR": "18 SPCS",
    "NORAD_CAT_ID": "27386",
    "OBJECT_NAME": "ENVISAT",
    "OBJECT_TYPE": "PAYLOAD",
    "CLASSIFICATION_TYPE": "U",
    "INTLDES": "02009A",
    "EPOCH": "2023-08-04 12:00:59",
    "EPOCH_MICROSECONDS": "289408",
    "MEAN_MOTION": "14.38387476",
    "ECCENTRICITY": "0.0001391",
    "INCLINATION": "98.2341",
    "RA_OF_ASC_NODE": "184.5279",
    "ARG_OF_PERICENTER": "85.0113",
    "MEAN_ANOMALY": "24.3012",
    "EPHEMERIS_TYPE": "0",
    "ELEMENT_SET_NO": "999",
    "REV_AT_EPOCH": "12290",
    "BSTAR": "0.000078302",
    "MEAN_MOTION_DOT": "0.00000197",
    "MEAN_MOTION_DDOT": "0",
    "FILE": "3971626",
    "TLE_LINE0": "0 ENVISAT",
    "TLE_LINE1": "1 27386U 02009A   23216.50068622  .00000197  00000-0  78302-4 0  9991",
    "TLE_LINE2": "2 27386  98.2341 184.5279 0001391  85.0113  24.3012 14.38387476122900",
    "OBJECT_ID": "2002-009A",
    "OBJECT_NUMBER": "27386",
    "SEMIMAJOR_AXIS": "7141.968",
    "PERIOD": "100.112",
    "APOGEE": "764.827",
    "PERIGEE": "762.840",
    "DECAYED": "0"
  },
  {
    "COMMENT": "GENERATED VIA SPACETRACK.ORG API",
    "ORIGINATOR": "18 SPCS",
    "NORAD_CAT_ID": "27386",
    "OBJECT_NAME": "ENVISAT",
    "OBJECT_TYPE": "PAYLOAD",
    "CLASSIFICATION_TYPE": "U",
    "INTLDES": "02009A",
    "EPOCH": "2023-08-04 21:48:22",
    "EPOCH_MICROSECONDS": "987296",
    "MEAN_MOTION": "14.38387708",
    "ECCENTRICITY": "0.0001379",
    "INCLINATION": "98.2341",
    "RA_OF_ASC_NODE": "184.9192",
    "ARG_OF_PERICENTER": "84.7061",
    "MEAN_ANOMALY": "335.6332",
    "EPHEMERIS_TYPE": "0",
    "ELEMENT_SET_NO": "999",
    "REV_AT_EPOCH": "12296",
    "BSTAR": "0.000080004",
    "MEAN_MOTION_DOT": "0.00000202",
    "MEAN_MOTION_DDOT": "0",
    "FILE": "3971854",
    "TLE_LINE0": "0 ENVISAT",
    "TLE_LINE1": "1 27386U 02009A   23216.90859939  .00000202  00000-0  80004-4 0  9993",
    "TLE_LINE2": "2 27386  98.2341 184.9192 0001379  84.7061 335.6332 14.38387708122969",
    "OBJECT_ID": "2002-009A",
    "OBJECT_NUMBER": "27386",
    "SEMIMAJOR_AXIS": "7141.967",
    "PERIOD": "100.112",
    "APOGEE": "764.817",
    "PERIGEE": "762.848",
    "DECAYED": "0"
  }
]